{"type":"FeatureCollection","features":[{"type":"Feature","properties":{"name":"Demo Health Zone A"},"geometry":{"type":"Polygon","coordinates":[[[14,-5],[15,-5],[15,-4],[14,-4],[14,-5]]]}},{"type":"Feature","properties":{"name":"Demo Health Zone B"},"geometry":{"type":"Polygon","coordinates":[[[28,-2],[29,-2],[29,-1],[28,-1],[28,-2]]]}},{"type":"Feature","properties":{"name":"Demo Health Zone C"},"geometry":{"type":"Polygon","coordinates":[[[25,-11],[26,-11],[26,-10],[25,-10],[25,-11]]]}},{"type":"Feature","properties":{"name":"Demo Health Zone D"},"geometry":{"type":"Polygon","coordinates":[[[21,1],[22,1],[22,2],[21,2],[21,1]]]}},{"type":"Feature","properties":{"name":"Demo Health Zone E"},"geometry":{"type":"Polygon","coordinates":[[[18,-6],[19,-6],[19,-5],[18,-5],[18,-6]]]}}]}
