{"type":"FeatureCollection","features":[{"type":"Feature","properties":{"name":"Kinshasa"},"geometry":{"type":"Polygon","coordinates":[[[14,-5],[16,-5],[16,-3],[14,-3],[14,-5]]]}},{"type":"Feature","properties":{"name":"Kongo Central"},"geometry":{"type":"Polygon","coordinates":[[[12.5,-7],[15,-7],[15,-4],[12.5,-4],[12.5,-7]]]}},{"type":"Feature","properties":{"name":"Haut-Katanga"},"geometry":{"type":"Polygon","coordinates":[[[25,-13],[30,-13],[30,-9],[25,-9],[25,-13]]]}},{"type":"Feature","properties":{"name":"North Kivu"},"geometry":{"type":"Polygon","coordinates":[[[27,-3],[31,-3],[31,1],[27,1],[27,-3]]]}},{"type":"Feature","properties":{"name":"Tshuapa"},"geometry":{"type":"Polygon","coordinates":[[[20,-1],[25,-1],[25,3],[20,3],[20,-1]]]}}]}
